IDEFIX & ARIANE 42P R/B 
1 27422U 02021B   26019.27159702  .00000287  00000+0  12560-3 0  9996
2 27422  98.5825 318.4838 0011500 338.4335  21.6362 14.30981606236950
AQUA                    
1 27424U 02022A   26019.27629806  .00001032  00000+0  21655-3 0  9990
2 27424  98.4090 345.7756 0001997  73.0764  31.8912 14.61830109261513
CZ-4B R/B               
1 27432U 02024C   26019.12778406  .00000047  00000+0  46892-4 0  9992
2 27432  98.8940  72.7589 0050491 162.7927 223.1897 14.14536341222234
MIDORI II (ADEOS-II)    
1 27597U 02056A   26019.30963684  .00000305  00000+0  13762-3 0  9999
2 27597  98.7690 337.4739 0001838 112.2418 247.8959 14.29238098203247
H-2A R/B                
1 27601U 02056E   26019.14815423  .00000303  00000+0  12122-3 0  9991
2 27601  98.3117 341.4272 0069407 309.9849  60.6356 14.33714276207012
CZ-4B R/B               
1 28059U 03049C   26019.28256929  .00000502  00000+0  12668-3 0  9993
2 28059  98.6821  12.2721 0048704  23.7621 336.5808 14.54952885179415
CZ-2C R/B               
1 28222U 04012C   26019.14098842  .00043108  00000+0  55549-3 0  9993
2 28222  97.7354  79.9314 0017186 131.3657 228.9079 15.58733977196542
SL-16 R/B               
1 28353U 04021B   26019.31165825 -.00000132  00000+0 -43948-4 0  9996
2 28353  71.0029 336.1167 0002803 135.3477 224.7871 14.14592429115854
CZ-4B R/B               
1 28415U 04035C   26019.02715309  .00008105  00000+0  29396-3 0  9992
2 28415  97.3565  53.8830 0033826 142.5666 217.7939 15.28051803172322
CZ-2C R/B               
1 28480U 04046B   26019.26211834  .00000185  00000+0  84689-4 0  9993
2 28480  98.2003 297.3128 0138489 301.3683  57.4010 14.26967486101456
ARIANE 5 R/B            
1 28499U 04049H   26019.31694548  .00001246  00000+0  14351-3 0  9996
2 28499  98.2549 185.9539 0084944 150.4222 210.1836 14.85130874138460
CZ-2D R/B               
1 28738U 05024B   26018.99490244  .00031759  00000+0  46201-3 0  9997
2 28738  97.3615  32.4852 0004783 174.9154 185.2150 15.55693506132045
