CCSDS_OMM_VERS = 2.0
CREATION_DATE  = 
ORIGINATOR     = 

OBJECT_NAME    = IDEFIX & ARIANE 42P R/B
OBJECT_ID      = 2002-021B
CENTER_NAME    = EARTH
REF_FRAME      = TEME
TIME_SYSTEM    = UTC
MEAN_ELEMENT_THEORY = SGP/SGP4

EPOCH          = 2026-01-19T06:31:05.982528
MEAN_MOTION    = 14.30981606
ECCENTRICITY   = .00115006
INCLINATION    = 98.5825
RA_OF_ASC_NODE = 318.4838
ARG_OF_PERICENTER = 338.4335
MEAN_ANOMALY   = 21.6362

EPHEMERIS_TYPE = 0
CLASSIFICATION_TYPE = U
NORAD_CAT_ID   = 27422
ELEMENT_SET_NO = 999
REV_AT_EPOCH   = 23695
BSTAR          = .12560172E-3
MEAN_MOTION_DOT = .287E-5
MEAN_MOTION_DDOT = 0

CCSDS_OMM_VERS = 2.0
CREATION_DATE  = 
ORIGINATOR     = 

OBJECT_NAME    = AQUA
OBJECT_ID      = 2002-022A
CENTER_NAME    = EARTH
REF_FRAME      = TEME
TIME_SYSTEM    = UTC
MEAN_ELEMENT_THEORY = SGP/SGP4

EPOCH          = 2026-01-19T06:37:52.152384
MEAN_MOTION    = 14.61830109
ECCENTRICITY   = .00019976
INCLINATION    = 98.4090
RA_OF_ASC_NODE = 345.7756
ARG_OF_PERICENTER = 73.0764
MEAN_ANOMALY   = 31.8912

EPHEMERIS_TYPE = 0
CLASSIFICATION_TYPE = U
NORAD_CAT_ID   = 27424
ELEMENT_SET_NO = 999
REV_AT_EPOCH   = 26151
BSTAR          = .216546E-3
MEAN_MOTION_DOT = .1032E-4
MEAN_MOTION_DDOT = 0

CCSDS_OMM_VERS = 2.0
CREATION_DATE  = 
ORIGINATOR     = 

OBJECT_NAME    = CZ-4B R/B
OBJECT_ID      = 2002-024C
CENTER_NAME    = EARTH
REF_FRAME      = TEME
TIME_SYSTEM    = UTC
MEAN_ELEMENT_THEORY = SGP/SGP4

EPOCH          = 2026-01-19T03:04:00.542784
MEAN_MOTION    = 14.14536341
ECCENTRICITY   = .00504917
INCLINATION    = 98.8940
RA_OF_ASC_NODE = 72.7589
ARG_OF_PERICENTER = 162.7927
MEAN_ANOMALY   = 223.1897

EPHEMERIS_TYPE = 0
CLASSIFICATION_TYPE = U
NORAD_CAT_ID   = 27432
ELEMENT_SET_NO = 999
REV_AT_EPOCH   = 22223
BSTAR          = .46892203E-4
MEAN_MOTION_DOT = .47E-6
MEAN_MOTION_DDOT = 0

CCSDS_OMM_VERS = 2.0
CREATION_DATE  = 
ORIGINATOR     = 

OBJECT_NAME    = MIDORI II (ADEOS-II)
OBJECT_ID      = 2002-056A
CENTER_NAME    = EARTH
REF_FRAME      = TEME
TIME_SYSTEM    = UTC
MEAN_ELEMENT_THEORY = SGP/SGP4

EPOCH          = 2026-01-19T07:25:52.622976
MEAN_MOTION    = 14.29238098
ECCENTRICITY   = .00018384
INCLINATION    = 98.7690
RA_OF_ASC_NODE = 337.4739
ARG_OF_PERICENTER = 112.2418
MEAN_ANOMALY   = 247.8959

EPHEMERIS_TYPE = 0
CLASSIFICATION_TYPE = U
NORAD_CAT_ID   = 27597
ELEMENT_SET_NO = 999
REV_AT_EPOCH   = 20324
BSTAR          = .13762137E-3
MEAN_MOTION_DOT = .305E-5
MEAN_MOTION_DDOT = 0

CCSDS_OMM_VERS = 2.0
CREATION_DATE  = 
ORIGINATOR     = 

OBJECT_NAME    = H-2A R/B
OBJECT_ID      = 2002-056E
CENTER_NAME    = EARTH
REF_FRAME      = TEME
TIME_SYSTEM    = UTC
MEAN_ELEMENT_THEORY = SGP/SGP4

EPOCH          = 2026-01-19T03:33:20.525472
MEAN_MOTION    = 14.33714276
ECCENTRICITY   = .0069407
INCLINATION    = 98.3117
RA_OF_ASC_NODE = 341.4272
ARG_OF_PERICENTER = 309.9849
MEAN_ANOMALY   = 60.6356

EPHEMERIS_TYPE = 0
CLASSIFICATION_TYPE = U
NORAD_CAT_ID   = 27601
ELEMENT_SET_NO = 999
REV_AT_EPOCH   = 20701
BSTAR          = .12122108E-3
MEAN_MOTION_DOT = .303E-5
MEAN_MOTION_DDOT = 0

CCSDS_OMM_VERS = 2.0
CREATION_DATE  = 
ORIGINATOR     = 

OBJECT_NAME    = CZ-4B R/B
OBJECT_ID      = 2003-049C
CENTER_NAME    = EARTH
REF_FRAME      = TEME
TIME_SYSTEM    = UTC
MEAN_ELEMENT_THEORY = SGP/SGP4

EPOCH          = 2026-01-19T06:46:53.986656
MEAN_MOTION    = 14.54952885
ECCENTRICITY   = .00487043
INCLINATION    = 98.6821
RA_OF_ASC_NODE = 12.2721
ARG_OF_PERICENTER = 23.7621
MEAN_ANOMALY   = 336.5808

EPHEMERIS_TYPE = 0
CLASSIFICATION_TYPE = U
NORAD_CAT_ID   = 28059
ELEMENT_SET_NO = 999
REV_AT_EPOCH   = 17941
BSTAR          = .12668382E-3
MEAN_MOTION_DOT = .502E-5
MEAN_MOTION_DDOT = 0

CCSDS_OMM_VERS = 2.0
CREATION_DATE  = 
ORIGINATOR     = 

OBJECT_NAME    = CZ-2C R/B
OBJECT_ID      = 2004-012C
CENTER_NAME    = EARTH
REF_FRAME      = TEME
TIME_SYSTEM    = UTC
MEAN_ELEMENT_THEORY = SGP/SGP4

EPOCH          = 2026-01-19T03:23:01.399488
MEAN_MOTION    = 15.58733977
ECCENTRICITY   = .00171868
INCLINATION    = 97.7354
RA_OF_ASC_NODE = 79.9314
ARG_OF_PERICENTER = 131.3657
MEAN_ANOMALY   = 228.9079

EPHEMERIS_TYPE = 0
CLASSIFICATION_TYPE = U
NORAD_CAT_ID   = 28222
ELEMENT_SET_NO = 999
REV_AT_EPOCH   = 19654
BSTAR          = .55549064E-3
MEAN_MOTION_DOT = .43108E-3
MEAN_MOTION_DDOT = 0

CCSDS_OMM_VERS = 2.0
CREATION_DATE  = 
ORIGINATOR     = 

OBJECT_NAME    = SL-16 R/B
OBJECT_ID      = 2004-021B
CENTER_NAME    = EARTH
REF_FRAME      = TEME
TIME_SYSTEM    = UTC
MEAN_ELEMENT_THEORY = SGP/SGP4

EPOCH          = 2026-01-19T07:28:47.272800
MEAN_MOTION    = 14.14592429
ECCENTRICITY   = .00028033
INCLINATION    = 71.0029
RA_OF_ASC_NODE = 336.1167
ARG_OF_PERICENTER = 135.3477
MEAN_ANOMALY   = 224.7871

EPHEMERIS_TYPE = 0
CLASSIFICATION_TYPE = U
NORAD_CAT_ID   = 28353
ELEMENT_SET_NO = 999
REV_AT_EPOCH   = 11585
BSTAR          = -.43947761E-4
MEAN_MOTION_DOT = -.132E-5
MEAN_MOTION_DDOT = 0

CCSDS_OMM_VERS = 2.0
CREATION_DATE  = 
ORIGINATOR     = 

OBJECT_NAME    = CZ-4B R/B
OBJECT_ID      = 2004-035C
CENTER_NAME    = EARTH
REF_FRAME      = TEME
TIME_SYSTEM    = UTC
MEAN_ELEMENT_THEORY = SGP/SGP4

EPOCH          = 2026-01-19T00:39:06.026976
MEAN_MOTION    = 15.28051803
ECCENTRICITY   = .00338263
INCLINATION    = 97.3565
RA_OF_ASC_NODE = 53.8830
ARG_OF_PERICENTER = 142.5666
MEAN_ANOMALY   = 217.7939

EPHEMERIS_TYPE = 0
CLASSIFICATION_TYPE = U
NORAD_CAT_ID   = 28415
ELEMENT_SET_NO = 999
REV_AT_EPOCH   = 17232
BSTAR          = .29395974E-3
MEAN_MOTION_DOT = .8105E-4
MEAN_MOTION_DDOT = 0

CCSDS_OMM_VERS = 2.0
CREATION_DATE  = 
ORIGINATOR     = 

OBJECT_NAME    = CZ-2C R/B
OBJECT_ID      = 2004-046B
CENTER_NAME    = EARTH
REF_FRAME      = TEME
TIME_SYSTEM    = UTC
MEAN_ELEMENT_THEORY = SGP/SGP4

EPOCH          = 2026-01-19T06:17:27.024576
MEAN_MOTION    = 14.26967486
ECCENTRICITY   = .01384895
INCLINATION    = 98.2003
RA_OF_ASC_NODE = 297.3128
ARG_OF_PERICENTER = 301.3683
MEAN_ANOMALY   = 57.4010

EPHEMERIS_TYPE = 0
CLASSIFICATION_TYPE = U
NORAD_CAT_ID   = 28480
ELEMENT_SET_NO = 999
REV_AT_EPOCH   = 10145
BSTAR          = .84688819E-4
MEAN_MOTION_DOT = .185E-5
MEAN_MOTION_DDOT = 0

CCSDS_OMM_VERS = 2.0
CREATION_DATE  = 
ORIGINATOR     = 

OBJECT_NAME    = ARIANE 5 R/B
OBJECT_ID      = 2004-049H
CENTER_NAME    = EARTH
REF_FRAME      = TEME
TIME_SYSTEM    = UTC
MEAN_ELEMENT_THEORY = SGP/SGP4

EPOCH          = 2026-01-19T07:36:24.089472
MEAN_MOTION    = 14.85130874
ECCENTRICITY   = .00849446
INCLINATION    = 98.2549
RA_OF_ASC_NODE = 185.9539
ARG_OF_PERICENTER = 150.4222
MEAN_ANOMALY   = 210.1836

EPHEMERIS_TYPE = 0
CLASSIFICATION_TYPE = U
NORAD_CAT_ID   = 28499
ELEMENT_SET_NO = 999
REV_AT_EPOCH   = 13846
BSTAR          = .14350993E-3
MEAN_MOTION_DOT = .1246E-4
MEAN_MOTION_DDOT = 0

CCSDS_OMM_VERS = 2.0
CREATION_DATE  = 
ORIGINATOR     = 

OBJECT_NAME    = CZ-2D R/B
OBJECT_ID      = 2005-024B
CENTER_NAME    = EARTH
REF_FRAME      = TEME
TIME_SYSTEM    = UTC
MEAN_ELEMENT_THEORY = SGP/SGP4

EPOCH          = 2026-01-18T23:52:39.570816
MEAN_MOTION    = 15.55693506
ECCENTRICITY   = .0004783
INCLINATION    = 97.3615
RA_OF_ASC_NODE = 32.4852
ARG_OF_PERICENTER = 174.9154
MEAN_ANOMALY   = 185.2150

EPHEMERIS_TYPE = 0
CLASSIFICATION_TYPE = U
NORAD_CAT_ID   = 28738
ELEMENT_SET_NO = 999
REV_AT_EPOCH   = 13204
BSTAR          = .46200582E-3
MEAN_MOTION_DOT = .31759E-3
MEAN_MOTION_DDOT = 0

